COSMOS 2413 (712)       
1 28509U 04053B   16060.95515175  .00000038  00000-0  00000+0 0  9997
2 28509  63.1314 193.9522 0005435 165.5136  96.0067  2.13101841 86990
COSMOS 2419 (714)       
1 28915U 05050A   16061.16435375  .00000027  00000-0  00000+0 0  9991
2 28915  65.2736  81.8109 0016332 343.9488  78.6497  2.13109236 79258
COSMOS 2425 (716)       
1 29670U 06062A   16060.74102084 -.00000038  00000-0  10000-3 0  9993
2 29670  65.6781 320.8004 0023458 345.9807 172.6868  2.13104895 71441
COSMOS 2426 (717)       
1 29671U 06062B   16060.64013531 -.00000039  00000-0  10000-3 0  9992
2 29671  65.6953 320.8833 0014995 164.3951 138.5653  2.13102993 71442
COSMOS 2424 (715)       
1 29672U 06062C   16060.73213589 -.00000038  00000-0  10000-3 0  9997
2 29672  65.6801 320.8108 0014394 162.9358  27.2088  2.13102039 71445
COSMOS 2433 (720)       
1 32275U 07052A   16061.43986049  .00000030  00000-0  10000-3 0  9997
2 32275  65.2893  81.5703 0004999 272.4303 254.2637  2.13104963 64974
COSMOS 2432 (719)       
1 32276U 07052B   16060.99924981  .00000026  00000-0  10000-3 0  9990
2 32276  65.3014  81.6491 0013262 328.5098 174.2058  2.13104199 64961
COSMOS 2434 (721)       
1 32393U 07065A   16060.68429753 -.00000038  00000-0  00000+0 0  9996
2 32393  65.2969 320.1770 0003476  79.5584 120.3708  2.13102739 63667
COSMOS 2436 (723)       
1 32395U 07065C   16061.03630579 -.00000037  00000-0  10000-3 0  9992
2 32395  65.3102 320.2058 0018997 353.2530 208.7249  2.13102817 63608
COSMOS 2443 (725)       
1 33379U 08046B   16060.59496267  .00000021  00000-0  10000-3 0  9991
2 33379  65.2175  81.0264 0017778 192.9146 312.0112  2.13101424 57826
COSMOS 2456 (730)       
1 36111U 09070A   16061.13167616  .00000047  00000-0  00000+0 0  9993
2 36111  64.1867 199.7658 0003496 343.4325   8.7478  2.13102827 48335
COSMOS 2457 (733)       
1 36112U 09070B   16061.06436624  .00000047  00000-0  00000+0 0  9994
2 36112  64.1685 199.6972 0007316 149.3102 282.0052  2.13101487 48340
COSMOS 2458 (734)       
1 36113U 09070C   16060.45205623  .00000048  00000-0  10000-3 0  9996
2 36113  64.1741 199.7233 0002740  59.2092 309.6827  2.13101954 48332
COSMOS 2459 (731)       
1 36400U 10007A   16060.89309135  .00000024  00000-0  10000-3 0  9992
2 36400  65.1967  80.7536 0029181 348.5684 344.9471  2.13102315 46681
COSMOS 2461 (735)       
1 36401U 10007B   16061.20890907  .00000027  00000-0  10000-3 0  9994
2 36401  65.1896  80.7252 0004130  54.4907  71.8543  2.13102310 46698
COSMOS 2460 (732)       
1 36402U 10007C   16061.42810367  .00000029  00000-0  10000-3 0  9993
2 36402  65.1800  80.6960 0002443 281.7380  54.8253  2.13101944 46695
COSMOS 2466 (738)       
1 37137U 10041A   16061.18539086 -.00000037  00000-0  10000-3 0  9996
2 37137  64.8795 320.3156 0018301 154.5058 293.9382  2.13111087 42773
COSMOS 2465 (737)       
1 37138U 10041B   16060.64318029 -.00000039  00000-0  00000+0 0  9996
2 37138  64.8973 320.4061 0033021 167.9125  46.5673  2.13101115 42751
COSMOS 2464 (736)       
1 37139U 10041C   16061.31427744 -.00000037  00000-0  00000+0 0  9995
2 37139  64.9009 320.3737 0019194 300.7265 241.8645  2.13929678 42772
COSMOS 2471 (701K)      
1 37372U 11009A   16061.45878516  .00000030  00000-0  00000+0 0  9993
2 37372  65.1777  80.6448 0009165 243.1486 249.1902  2.13102876 38970
COSMOS 2474 (742)       
1 37829U 11055A   16060.43734058  .00000049  00000-0  00000+0 0  9990
2 37829  64.5110 200.1567 0006008 248.2610 153.1349  2.13101856 34321
COSMOS 2476 (744)       
1 37867U 11064A   16060.73612066  .00000049  00000-0  00000+0 0  9999
2 37867  64.4910 200.2308 0014880 245.0124  71.3825  2.13101983 33674
COSMOS 2477 (745)       
1 37868U 11064B   16061.13495045  .00000048  00000-0  00000+0 0  9990
2 37868  64.5004 200.2574 0013167 246.6082 195.1332  2.13101925 33643
COSMOS 2475 (743)       
1 37869U 11064C   16061.05551874  .00000048  00000-0  00000+0 0  9995
2 37869  64.5075 200.2466 0018342 277.8373  59.0478  2.13101943 33640
COSMOS 2478 (746)       
1 37938U 11071A   16061.10454917  .00000026  00000-0  00000+0 0  9992
2 37938  65.2048  80.8746 0014762 244.2841  94.7616  2.13088493 33259
COSMOS 2485 (747)       
1 39155U 13019A   16061.20328378  .00000048  00000-0  00000+0 0  9995
2 39155  64.6601 200.1412 0015283 238.9337 121.0318  2.13101987 22161
COSMOS 2492 (754)       
1 39620U 14012A   16060.70519791  .00000022  00000-0  10000-3 0  9998
2 39620  65.0688  80.7236 0017199 326.7922  43.9267  2.13103658 15106
COSMOS 2500 (755)       
1 40001U 14032A   16060.50779578  .00000020  00000-0  00000+0 0  9997
2 40001  65.0089  80.7633 0007133 225.1368 218.0646  2.13102929 13317
COSMOS 2501 (702K)      
1 40315U 14075A   16061.35488615 -.00000039  00000-0  00000+0 0  9996
2 40315  64.6683 321.8654 0016814 240.1776 294.6441  2.13101356  9735
